OBJECT_NAME,OBJECT_ID,EPOCH,MEAN_MOTION,ECCENTRICITY,INCLINATION,RA_OF_ASC_NODE,ARG_OF_PERICENTER,MEAN_ANOMALY,EPHEMERIS_TYPE,CLASSIFICATION_TYPE,NORAD_CAT_ID,ELEMENT_SET_NO,REV_AT_EPOCH,BSTAR,MEAN_MOTION_DOT,MEAN_MOTION_DDOT
LEMUR-2-STARLIGHT,2025-276DY,2026-07-13T17:37:19.091136,14.99343047,.0014807,97.5236,264.4653,51.6430,308.6122,0,U,66783,999,3417,.30805E-3,.3717E-4,0
LEMUR-2-TARTIFLETTE,2025-276DZ,2026-07-13T17:34:59.606976,14.99329199,.0013909,97.5236,264.4718,59.8123,300.4476,0,U,66784,999,3417,.28391E-3,.3419E-4,0
LEMUR-2-VUKASIN,2025-276EA,2026-07-13T16:54:00.116928,15.00538582,.0003326,97.5236,264.8005,58.7508,301.4041,0,U,66785,999,3412,.21936E-3,.2709E-4,0
LEMUR-2-HOTSPUR-TOM,2025-276EB,2026-07-13T17:26:47.702400,14.99232058,.0013858,97.5224,264.4408,51.0077,309.2378,0,U,66786,999,3410,.2533E-3,.3036E-4,0
LEMUR-2-MYRA,2025-276EC,2026-07-13T17:40:00.016320,15.00579015,.001866,97.5223,264.7511,58.6912,301.6136,0,U,66787,999,3419,.28113E-3,.3504E-4,0
LEMUR-2 FIKRETDENGIZ,2026-004A,2026-07-13T13:18:21.710016,14.88510256,.0010286,97.8023,192.7112,60.4075,299.8165,0,U,67363,999,2720,.25184E-3,.2288E-4,0
TWILIGHT-1 OBJECT B,2026-004B,2026-07-13T12:33:51.391872,14.87790232,.0009855,97.8074,192.6825,50.7792,309.4298,0,U,67364,999,2720,.10933E-3,.944E-5,0
LEMUR-2-MARIO-SOUSA,2026-004C,2026-07-13T12:49:41.776320,14.88718766,.0009922,97.7996,192.6866,61.6788,298.5429,0,U,67365,999,2721,.28474E-3,.2607E-4,0
LEMUR-2-SONNENBLUME,2026-004E,2026-07-13T12:53:21.967584,14.88448243,.0009486,97.8000,192.6626,62.7623,297.4559,0,U,67367,999,2721,.16492E-3,.1477E-4,0
LEMUR-2-WOBLER,2026-004F,2026-07-13T19:05:29.230080,14.88691368,.0009556,97.8046,193.0665,54.1802,306.0302,0,U,67368,999,2725,.22857E-3,.208E-4,0
LEMUR-2-GRAM-E-SUE,2026-004H,2026-07-13T12:26:49.672608,14.88584866,.00087,97.7986,192.6609,65.4084,294.8038,0,U,67370,999,2721,.14215E-3,.1269E-4,0
LEMUR-2-KATIE,2026-004AA,2026-07-13T13:04:13.897056,14.90242123,.0003635,97.8042,193.2324,38.0849,322.0625,0,U,67387,999,2723,.3119E-3,.2971E-4,0
LEMUR-2-HCS-BAZUS,2026-004AB,2026-07-13T13:01:52.912128,14.90256181,.0003154,97.8038,193.2094,36.4661,323.6771,0,U,67388,999,2723,.17207E-3,.1614E-4,0
